{"type": "FeatureCollection", "name": "temporary", "crs": {"type": "name", "properties": {"name": "urn:ogc:def:crs:OGC:1.3:CRS84"}}, "features": [{"geometry": {"type": "Polygon", "coordinates": [[[120.60854166709201, 23.560127777723952], [120.63103611062706, 23.5365111110448], [120.63764166725295, 23.548252778174323], [120.62363888940253, 23.56324999987747], [120.60854166709201, 23.560127777723952]]]}, "id": 96, "type": "Feature", "properties": {"空域類別名稱": "縣市政府限制使用範圍", "會商機關名稱": "嘉義縣政府", "主管機關名稱": "嘉義縣政府", "聯絡方式": "承辦窗口：鄭立程\r\n電子郵件：bryan7172@mail.cyhg.gov.tw\r\n電話：05-3622712#6602", "主管機關": "14", "空域說明": "本區於每年8月31日起至10月31日止禁止遙控無人機飛航活動，因執行業務得經嘉義縣政府同意後為之。", "三級機關": null, "有效日期起": "115/9/11", "罰則": "罰款3萬-15萬\r\n註冊/地點/操作限制\r\n得沒入遙控無人機", "last_edited_date": null, "空域類型": 7, "SHAPE__Area": 4665411.19519194, "會商機關": ".886.101.90013.20002", "空域顏色": "紅區", "有效日期迄": "115/10/31", "限制區": "紅區", "created_user": null, "空域類別": 7, "空域名稱": "嘉義縣太興村黃頭鷺遷徙區域", "last_edited_user": null, "條件": null, "countyid": null, "created_date": null, "二級機關": null, "SHAPE__Length": 9531.491558533975, "objectid": 96}}, {"geometry": {"type": "Polygon", "coordinates": [[[121.46658333274584, 25.01051388916634], [121.46752499982729, 25.008861110733374], [121.4741333331457, 25.009972221629333], [121.471755556369, 25.01198333304957], [121.46658333274584, 25.01051388916634]]]}, "id": 97, "type": "Feature", "properties": {"空域類別名稱": "縣市政府限制使用範圍", "會商機關名稱": "新北市政府文化局", "主管機關名稱": "新北市政府", "聯絡方式": "承辦人：吳君頌\r\n電話：(02)29603456 分機4593\r\n傳真：(02)29631321\r\n電子信箱：AN4665@ntpc.gov.tw", "主管機關": "3", "空域說明": "本區115年10月9日全日禁止遙控無人機飛航活動，因執行業務得經新北市政府後同意後為之。", "三級機關": null, "有效日期起": "115/10/09", "罰則": "罰款3萬-15萬\r\n註冊/地點/操作限制\r\n得沒入遙控無人機", "last_edited_date": null, "空域類型": 7, "SHAPE__Area": 176837.68473316, "會商機關": "01.90026.20002.20025", "空域顏色": "紅區", "有效日期迄": "115/10/09", "限制區": "紅區", "created_user": null, "空域類別": 7, "空域名稱": "115年國慶晚會", "last_edited_user": null, "條件": null, "countyid": null, "created_date": null, "二級機關": null, "SHAPE__Length": 1942.1450358138427, "objectid": 97}}, {"geometry": {"type": "Polygon", "coordinates": [[[121.56455555595927, 25.05558262457274], [121.56331100481181, 25.055546992332516], [121.56207136655067, 25.055440236333983], [121.56084153789241, 25.055262777931233], [121.55962637153623, 25.055015317486227], [121.558430668079, 25.054698832747324], [121.55725914637082, 25.05431457234732], [121.55611643183725, 25.05386405418625], [121.55500703581754, 25.053349056492344], [121.55393533849713, 25.052771612953098], [121.55290556914422, 25.052134002152176], [121.55192179353382, 25.051438743517167], [121.55098789418469, 25.05068857943417], [121.55010755778267, 25.049886473639045], [121.54928425811296, 25.04903559089147], [121.54852124438202, 25.04813929048384], [121.54782152684426, 25.047201111611713], [121.54718786602261, 25.04622475711636], [121.54662276192853, 25.04521408129508], [121.54612844418052, 25.044173072827647], [121.54570686122443, 25.043105841770647], [121.54535967584181, 25.04201660003893], [121.54508825526861, 25.04090964676867], [121.54489367029659, 25.039789352050356], [121.54477668629045, 25.038660136590092], [121.54473776228913, 25.0375264562519], [121.54477705010814, 25.036392787411273], [121.5448943916438, 25.035263601725532], [121.54508932336549, 25.034143357179612], [121.54536107362043, 25.033036473665035], [121.54570856622684, 25.03194731995111], [121.54613043035562, 25.03088019251451], [121.54662499693698, 25.029839303319825], [121.5471903148301, 25.028828759458587], [121.54782415172151, 25.02785254767004], [121.54852400310823, 25.02691452048815], [121.54928710756909, 25.026018378317413], [121.55011045305284, 25.02516765801919], [121.55099078945486, 25.02436571417146], [121.55192464298993, 25.023615712537723], [121.55290832787043, 25.022920611325844], [121.55393796337438, 25.022283153028905], [121.55500948552339, 25.021705853010484], [121.55611866684569, 25.02119098727648], [121.5572611316476, 25.020740587574217], [121.55843237308136, 25.020356431608487], [121.55962776931477, 25.02004003407346], [121.56084260509098, 25.019792643384115], [121.5620720878978, 25.019615235153776], [121.56331136773116, 25.01950850974369], [121.56455555595927, 25.01947288737316], [121.5657997441873, 25.01950850974369], [121.56703902402066, 25.019615235153776], [121.56826850682754, 25.019792643384115], [121.56948334260376, 25.02004003407346], [121.5706787388371, 25.020356431608487], [121.5718499802709, 25.020740587574217], [121.57299244507281, 25.02119098727648], [121.57410162639516, 25.021705853010484], [121.57517314854415, 25.022283153028905], [121.57620278404809, 25.022920611325844], [121.57718646892857, 25.023615712537723], [121.57812032246368, 25.02436571417146], [121.57900065886568, 25.02516765801919], [121.57982400434943, 25.026018378317413], [121.5805871088103, 25.02691452048815], [121.581286960197, 25.02785254767004], [121.58192079708843, 25.028828759458587], [121.58248611498155, 25.029839303319825], [121.58298068156289, 25.03088019251451], [121.58340254569167, 25.03194731995111], [121.58375003829809, 25.033036473665035], [121.58402178855303, 25.034143357179612], [121.58421672027472, 25.035263601725532], [121.5843340618104, 25.036392787411273], [121.58437334962937, 25.0375264562519], [121.58433442562807, 25.038660136590092], [121.58421744162185, 25.039789352050356], [121.58402285664985, 25.04090964676867], [121.58375143607671, 25.04201660003893], [121.58340425069409, 25.043105841770647], [121.58298266773802, 25.044173072827647], [121.58248834999, 25.04521408129508], [121.5819232458959, 25.04622475711636], [121.58128958507426, 25.047201111611713], [121.58058986753652, 25.04813929048384], [121.57982685380557, 25.04903559089147], [121.57900355413585, 25.049886473639045], [121.57812321773385, 25.05068857943417], [121.57718931838464, 25.051438743517167], [121.5762055427743, 25.052134002152176], [121.5751757734214, 25.052771612953098], [121.5741040761009, 25.053349056492344], [121.57299468008127, 25.05386405418625], [121.57185196554764, 25.05431457234732], [121.57068044383952, 25.054698832747324], [121.56948474038231, 25.055015317486227], [121.56826957402609, 25.055262777931233], [121.56703974536786, 25.055440236333983], [121.56580010710674, 25.055546992332516], [121.56455555595927, 25.05558262457274]]]}, "id": 98, "type": "Feature", "properties": {"空域類別名稱": "縣市政府限制使用範圍", "會商機關名稱": "臺北市政府觀光傳播局", "主管機關名稱": "臺北市政府", "聯絡方式": "承辦窗口：綜合行銷科\r\n電話：02-27208889 分機2031", "主管機關": "1", "空域說明": "1. 因應本市辦理「台北101 國慶展演」於 115 年10 月10日22 時至22 時15辦理，為維持活動場域安全，新增公告禁止從事遙控無人機活動。\r\n2. 本區範圍內禁止時間自115 年10 月10日17 時至24 時止。\r\n3. 因執行業務得經臺北市政府觀光傳播局同意後為之。", "三級機關": null, "有效日期起": "115/10/10", "罰則": "罰款3萬-15萬\r\n註冊/地點/操作限制\r\n得沒入遙控無人機", "last_edited_date": null, "空域類型": 7, "SHAPE__Area": 15364315.02204296, "會商機關": "01.90003.20002.20052", "空域顏色": "紅區", "有效日期迄": "115/10/10", "限制區": "紅區", "created_user": null, "空域類別": 7, "空域名稱": "台北101國慶展演", "last_edited_user": null, "條件": null, "countyid": null, "created_date": null, "二級機關": null, "SHAPE__Length": 13897.461106096373, "objectid": 98}}]}